{
  "links" : {
    "next" : "https://api.nasa.gov/neo/rest/v1/feed?start_date=2015-10-16&end_date=2015-10-16&detailed=true&api_key=t0TVs3DtDT2H8Oy2Zy8m2eVrNsAVKAexjcZXUckd",
    "prev" : "https://api.nasa.gov/neo/rest/v1/feed?start_date=2015-10-14&end_date=2015-10-14&detailed=true&api_key=t0TVs3DtDT2H8Oy2Zy8m2eVrNsAVKAexjcZXUckd",
    "self" : "https://api.nasa.gov/neo/rest/v1/feed?start_date=2015-10-15&end_date=2015-10-15&detailed=true&api_key=t0TVs3DtDT2H8Oy2Zy8m2eVrNsAVKAexjcZXUckd"
  },
  "element_count" : 9,
  "near_earth_objects" : {
    "2015-10-15" : [ {
      "links" : {
        "self" : "https://api.nasa.gov/neo/rest/v1/neo/3674103?api_key=t0TVs3DtDT2H8Oy2Zy8m2eVrNsAVKAexjcZXUckd"
      },
      "neo_reference_id" : "3674103",
      "name" : "(2014 MK27)",
      "nasa_jpl_url" : "http://ssd.jpl.nasa.gov/sbdb.cgi?sstr=3674103",
      "absolute_magnitude_h" : 21.5,
      "estimated_diameter" : {
        "kilometers" : {
          "estimated_diameter_min" : 0.1332155667,
          "estimated_diameter_max" : 0.2978790628
        },
        "meters" : {
          "estimated_diameter_min" : 133.2155666981,
          "estimated_diameter_max" : 297.8790627982
        },
        "miles" : {
          "estimated_diameter_min" : 0.0827762899,
          "estimated_diameter_max" : 0.1850934111
        },
        "feet" : {
          "estimated_diameter_min" : 437.0589598459,
          "estimated_diameter_max" : 977.2935443908
        }
      },
      "is_potentially_hazardous_asteroid" : false,
      "close_approach_data" : [ {
        "close_approach_date" : "2015-10-15",
        "epoch_date_close_approach" : 1444892400000,
        "relative_velocity" : {
          "kilometers_per_second" : "10.6987748895",
          "kilometers_per_hour" : "38515.5896023116",
          "miles_per_hour" : "23932.0895503919"
        },
        "miss_distance" : {
          "astronomical" : "0.2882583717",
          "lunar" : "112.1325073242",
          "kilometers" : "43122840",
          "miles" : "26795290"
        },
        "orbiting_body" : "Earth"
      } ],
      "orbital_data" : {
        "orbit_id" : "16",
        "orbit_determination_date" : "2017-05-17 06:17:44",
        "orbit_uncertainty" : "2",
        "minimum_orbit_intersection" : ".13285",
        "jupiter_tisserand_invariant" : "5.837",
        "epoch_osculation" : "2458000.5",
        "eccentricity" : ".3394092589747245",
        "semi_major_axis" : "1.039498230807663",
        "inclination" : "8.469322395913482",
        "ascending_node_longitude" : "69.66255824687953",
        "orbital_period" : "387.1097043244359",
        "perihelion_distance" : ".6866829065836968",
        "perihelion_argument" : "349.3984751629843",
        "aphelion_distance" : "1.392313555031629",
        "perihelion_time" : "2458107.255435643575",
        "mean_anomaly" : "260.720761059823",
        "mean_motion" : ".9299689363981553",
        "equinox" : "J2000"
      }
    }, {
      "links" : {
        "self" : "https://api.nasa.gov/neo/rest/v1/neo/3713268?api_key=t0TVs3DtDT2H8Oy2Zy8m2eVrNsAVKAexjcZXUckd"
      },
      "neo_reference_id" : "3713268",
      "name" : "(2015 EB7)",
      "nasa_jpl_url" : "http://ssd.jpl.nasa.gov/sbdb.cgi?sstr=3713268",
      "absolute_magnitude_h" : 21.5,
      "estimated_diameter" : {
        "kilometers" : {
          "estimated_diameter_min" : 0.1332155667,
          "estimated_diameter_max" : 0.2978790628
        },
        "meters" : {
          "estimated_diameter_min" : 133.2155666981,
          "estimated_diameter_max" : 297.8790627982
        },
        "miles" : {
          "estimated_diameter_min" : 0.0827762899,
          "estimated_diameter_max" : 0.1850934111
        },
        "feet" : {
          "estimated_diameter_min" : 437.0589598459,
          "estimated_diameter_max" : 977.2935443908
        }
      },
      "is_potentially_hazardous_asteroid" : false,
      "close_approach_data" : [ {
        "close_approach_date" : "2015-10-15",
        "epoch_date_close_approach" : 1444892400000,
        "relative_velocity" : {
          "kilometers_per_second" : "27.9025289821",
          "kilometers_per_hour" : "100449.1043357054",
          "miles_per_hour" : "62415.1670801499"
        },
        "miss_distance" : {
          "astronomical" : "0.4980512521",
          "lunar" : "193.7419433594",
          "kilometers" : "74507408",
          "miles" : "46296756"
        },
        "orbiting_body" : "Earth"
      } ],
      "orbital_data" : {
        "orbit_id" : "16",
        "orbit_determination_date" : "2017-04-05 06:17:36",
        "orbit_uncertainty" : "3",
        "minimum_orbit_intersection" : ".330539",
        "jupiter_tisserand_invariant" : "6.105",
        "epoch_osculation" : "2458000.5",
        "eccentricity" : ".4801481860442222",
        "semi_major_axis" : ".9577615879518544",
        "inclination" : "26.71342371524361",
        "ascending_node_longitude" : "15.79446585700748",
        "orbital_period" : "342.3612076859905",
        "perihelion_distance" : ".4978940988339376",
        "perihelion_argument" : "356.279213510382",
        "aphelion_distance" : "1.417629077069771",
        "perihelion_time" : "2457992.450198237935",
        "mean_anomaly" : "8.464535611176563",
        "mean_motion" : "1.051521001556308",
        "equinox" : "J2000"
      }
    }, {
      "links" : {
        "self" : "https://api.nasa.gov/neo/rest/v1/neo/3729283?api_key=t0TVs3DtDT2H8Oy2Zy8m2eVrNsAVKAexjcZXUckd"
      },
      "neo_reference_id" : "3729283",
      "name" : "(2015 TK143)",
      "nasa_jpl_url" : "http://ssd.jpl.nasa.gov/sbdb.cgi?sstr=3729283",
      "absolute_magnitude_h" : 21.1,
      "estimated_diameter" : {
        "kilometers" : {
          "estimated_diameter_min" : 0.160160338,
          "estimated_diameter_max" : 0.358129403
        },
        "meters" : {
          "estimated_diameter_min" : 160.1603379786,
          "estimated_diameter_max" : 358.1294030194
        },
        "miles" : {
          "estimated_diameter_min" : 0.0995189894,
          "estimated_diameter_max" : 0.2225312253
        },
        "feet" : {
          "estimated_diameter_min" : 525.4604432536,
          "estimated_diameter_max" : 1174.9652706022
        }
      },
      "is_potentially_hazardous_asteroid" : false,
      "close_approach_data" : [ {
        "close_approach_date" : "2015-10-15",
        "epoch_date_close_approach" : 1444892400000,
        "relative_velocity" : {
          "kilometers_per_second" : "11.2414632967",
          "kilometers_per_hour" : "40469.2678682302",
          "miles_per_hour" : "25146.0292484567"
        },
        "miss_distance" : {
          "astronomical" : "0.2166050521",
          "lunar" : "84.2593688965",
          "kilometers" : "32403654",
          "miles" : "20134698"
        },
        "orbiting_body" : "Earth"
      } ],
      "orbital_data" : {
        "orbit_id" : "29",
        "orbit_determination_date" : "2017-04-06 08:31:31",
        "orbit_uncertainty" : "4",
        "minimum_orbit_intersection" : ".13715",
        "jupiter_tisserand_invariant" : "4.493",
        "epoch_osculation" : "2458000.5",
        "eccentricity" : ".3408009738629407",
        "semi_major_axis" : "1.459796011213803",
        "inclination" : "21.1272962069609",
        "ascending_node_longitude" : "9.19198537269809",
        "orbital_period" : "644.2236822332485",
        "perihelion_distance" : ".9622961089509025",
        "perihelion_argument" : "73.44791276118448",
        "aphelion_distance" : "1.957295913476703",
        "perihelion_time" : "2458019.736501636743",
        "mean_anomaly" : "349.2504097874498",
        "mean_motion" : ".5588121174807384",
        "equinox" : "J2000"
      }
    } ]
  }
}